{"type": "FeatureCollection", "features": [ {"type": "Feature", "properties": {"norad_id": 66563, "name": "STARLINK-35437", "group": "last-30-days", "lat": -42.86859459434123, "lon": 68.47375145196699, "alt_km": 391.72317765551816, "timestamp": "2025-12-07T05:38:08.685016+00:00", "meta": {"OBJECT_NAME": "STARLINK-35437", "OBJECT_ID": "2025-268G", "EPOCH": "2025-12-06T14:00:01.999872", "MEAN_MOTION": 15.62106782, "ECCENTRICITY": 0.00013255, "INCLINATION": 42.9997, "RA_OF_ASC_NODE": 157.3072, "ARG_OF_PERICENTER": 259.9504, "MEAN_ANOMALY": 309.0934, "EPHEMERIS_TYPE": 0, "CLASSIFICATION_TYPE": "U", "NORAD_CAT_ID": 66563, "ELEMENT_SET_NO": 999, "REV_AT_EPOCH": 368, "BSTAR": -0.025296068, "MEAN_MOTION_DOT": -0.02002363, "MEAN_MOTION_DDOT": 0}, "tle": {"line1": "1 66563U 25268G   25340.58335648 -.02002363  00000+0 -25296-1 0  9997", "line2": "2 66563  42.9997 157.3072 0001325 259.9504 309.0934 15.62106782  3681"}}, "geometry": {"type": "Point", "coordinates": [68.47375145196699, -42.86859459434123]}}, {"type": "Feature", "properties": {"norad_id": 66564, "name": "STARLINK-35358", "group": "last-30-days", "lat": -42.72427007214859, "lon": 71.0747224163325, "alt_km": 391.66659711237935, "timestamp": "2025-12-07T05:38:08.685026+00:00", "meta": {"OBJECT_NAME": "STARLINK-35358", "OBJECT_ID": "2025-268H", "EPOCH": "2025-12-06T14:00:01.999872", "MEAN_MOTION": 15.6210414, "ECCENTRICITY": 0.0001402, "INCLINATION": 42.9997, "RA_OF_ASC_NODE": 157.3025, "ARG_OF_PERICENTER": 259.2458, "MEAN_ANOMALY": 311.7146, "EPHEMERIS_TYPE": 0, "CLASSIFICATION_TYPE": "U", "NORAD_CAT_ID": 66564, "ELEMENT_SET_NO": 999, "REV_AT_EPOCH": 363, "BSTAR": -0.025228945, "MEAN_MOTION_DOT": -0.0199758, "MEAN_MOTION_DDOT": 0}, "tle": {"line1": "1 66564U 25268H   25340.58335648 -.01997580  00000+0 -25229-1 0  9997", "line2": "2 66564  42.9997 157.3025 0001402 259.2458 311.7146 15.62104140  3633"}}, "geometry": {"type": "Point", "coordinates": [71.0747224163325, -42.72427007214859]}}, {"type": "Feature", "properties": {"norad_id": 66565, "name": "STARLINK-35893", "group": "last-30-days", "lat": -42.53032705457002, "lon": 73.56237776730177, "alt_km": 392.1669246534484, "timestamp": "2025-12-07T05:38:08.685038+00:00", "meta": {"OBJECT_NAME": "STARLINK-35893", "OBJECT_ID": "2025-268J", "EPOCH": "2025-12-06T14:00:01.999872", "MEAN_MOTION": 15.62132226, "ECCENTRICITY": 0.00010483, "INCLINATION": 43, "RA_OF_ASC_NODE": 157.2974, "ARG_OF_PERICENTER": 273.6039, "MEAN_ANOMALY": 299.3163, "EPHEMERIS_TYPE": 0, "CLASSIFICATION_TYPE": "U", "NORAD_CAT_ID": 66565, "ELEMENT_SET_NO": 999, "REV_AT_EPOCH": 368, "BSTAR": -0.026548548, "MEAN_MOTION_DOT": -0.02090255, "MEAN_MOTION_DDOT": 0}, "tle": {"line1": "1 66565U 25268J   25340.58335648 -.02090255  00000+0 -26549-1 0  9998", "line2": "2 66565  43.0000 157.2974 0001048 273.6039 299.3163 15.62132226  3685"}}, "geometry": {"type": "Point", "coordinates": [73.56237776730177, -42.53032705457002]}}, {"type": "Feature", "properties": {"norad_id": 66566, "name": "STARLINK-35871", "group": "last-30-days", "lat": -42.26151322567766, "lon": 76.21952919105212, "alt_km": 391.63899004790983, "timestamp": "2025-12-07T05:38:08.685048+00:00", "meta": {"OBJECT_NAME": "STARLINK-35871", "OBJECT_ID": "2025-268K", "EPOCH": "2025-12-06T14:00:01.999872", "MEAN_MOTION": 15.62104823, "ECCENTRICITY": 0.00014513, "INCLINATION": 43.0001, "RA_OF_ASC_NODE": 157.2926, "ARG_OF_PERICENTER": 259.7293, "MEAN_ANOMALY": 315.0649, "EPHEMERIS_TYPE": 0, "CLASSIFICATION_TYPE": "U", "NORAD_CAT_ID": 66566, "ELEMENT_SET_NO": 999, "REV_AT_EPOCH": 368, "BSTAR": -0.025245452, "MEAN_MOTION_DOT": -0.01998809, "MEAN_MOTION_DDOT": 0}, "tle": {"line1": "1 66566U 25268K   25340.58335648 -.01998809  00000+0 -25245-1 0  9992", "line2": "2 66566  43.0001 157.2926 0001451 259.7293 315.0649 15.62104823  3686"}}, "geometry": {"type": "Point", "coordinates": [76.21952919105212, -42.26151322567766]}}, {"type": "Feature", "properties": {"norad_id": 66567, "name": "STARLINK-35825", "group": "last-30-days", "lat": -41.944228318086004, "lon": 78.75895253677798, "alt_km": 391.6763796414616, "timestamp": "2025-12-07T05:38:08.685058+00:00", "meta": {"OBJECT_NAME": "STARLINK-35825", "OBJECT_ID": "2025-268L", "EPOCH": "2025-12-06T14:00:01.999872", "MEAN_MOTION": 15.62106177, "ECCENTRICITY": 0.00013892, "INCLINATION": 43, "RA_OF_ASC_NODE": 157.288, "ARG_OF_PERICENTER": 260.8347, "MEAN_ANOMALY": 315.8765, "EPHEMERIS_TYPE": 0, "CLASSIFICATION_TYPE": "U", "NORAD_CAT_ID": 66567, "ELEMENT_SET_NO": 999, "REV_AT_EPOCH": 368, "BSTAR": -0.025269017, "MEAN_MOTION_DOT": -0.02000492, "MEAN_MOTION_DDOT": 0}, "tle": {"line1": "1 66567U 25268L   25340.58335648 -.02000492  00000+0 -25269-1 0  9992", "line2": "2 66567  43.0000 157.2880 0001389 260.8347 315.8765 15.62106177  3689"}}, "geometry": {"type": "Point", "coordinates": [78.75895253677798, -41.944228318086004]}}, {"type": "Feature", "properties": {"norad_id": 66568, "name": "STARLINK-35803", "group": "last-30-days", "lat": -41.57036721358545, "lon": 81.27678697095244, "alt_km": 391.70018040774994, "timestamp": "2025-12-07T05:38:08.685070+00:00", "meta": {"OBJECT_NAME": "STARLINK-35803", "OBJECT_ID": "2025-268M", "EPOCH": "2025-12-06T14:00:01.999872", "MEAN_MOTION": 15.62104987, "ECCENTRICITY": 0.00014092, "INCLINATION": 42.9999, "RA_OF_ASC_NODE": 157.2829, "ARG_OF_PERICENTER": 256.5957, "MEAN_ANOMALY": 322.0311, "EPHEMERIS_TYPE": 0, "CLASSIFICATION_TYPE": "U", "NORAD_CAT_ID": 66568, "ELEMENT_SET_NO": 999, "REV_AT_EPOCH": 368, "BSTAR": -0.025220579, "MEAN_MOTION_DOT": -0.01997062, "MEAN_MOTION_DDOT": 0}, "tle": {"line1": "1 66568U 25268M   25340.58335648 -.01997062  00000+0 -25221-1 0  9998", "line2": "2 66568  42.9999 157.2829 0001409 256.5957 322.0311 15.62104987  3684"}}, "geometry": {"type": "Point", "coordinates": [81.27678697095244, -41.57036721358545]}}, {"type": "Feature", "properties": {"norad_id": 66569, "name": "STARLINK-35835", "group": "last-30-days", "lat": -41.14323752481151, "lon": 83.75740678199386, "alt_km": 391.7048434725684, "timestamp": "2025-12-07T05:38:08.685081+00:00", "meta": {"OBJECT_NAME": "STARLINK-35835", "OBJECT_ID": "2025-268N", "EPOCH": "2025-12-06T14:00:01.999872", "MEAN_MOTION": 15.62104238, "ECCENTRICITY": 0.00013888, "INCLINATION": 42.9998, "RA_OF_ASC_NODE": 157.2783, "ARG_OF_PERICENTER": 257.6896, "MEAN_ANOMALY": 322.8559, "EPHEMERIS_TYPE": 0, "CLASSIFICATION_TYPE": "U", "NORAD_CAT_ID": 66569, "ELEMENT_SET_NO": 999, "REV_AT_EPOCH": 368, "BSTAR": -0.025224621, "MEAN_MOTION_DOT": -0.01997276, "MEAN_MOTION_DDOT": 0}, "tle": {"line1": "1 66569U 25268N   25340.58335648 -.01997276  00000+0 -25225-1 0  9990", "line2": "2 66569  42.9998 157.2783 0001388 257.6896 322.8559 15.62104238  3684"}}, "geometry": {"type": "Point", "coordinates": [83.75740678199386, -41.14323752481151]}}, {"type": "Feature", "properties": {"norad_id": 66570, "name": "STARLINK-35834", "group": "last-30-days", "lat": -40.66375274116754, "lon": 86.20322943287145, "alt_km": 391.67223233055665, "timestamp": "2025-12-07T05:38:08.685092+00:00", "meta": {"OBJECT_NAME": "STARLINK-35834", "OBJECT_ID": "2025-268P", "EPOCH": "2025-12-06T14:00:01.999872", "MEAN_MOTION": 15.62103939, "ECCENTRICITY": 0.00013968, "INCLINATION": 43.0001, "RA_OF_ASC_NODE": 157.2727, "ARG_OF_PERICENTER": 260.0515, "MEAN_ANOMALY": 322.4131, "EPHEMERIS_TYPE": 0, "CLASSIFICATION_TYPE": "U", "NORAD_CAT_ID": 66570, "ELEMENT_SET_NO": 999, "REV_AT_EPOCH": 368, "BSTAR": -0.025234669, "MEAN_MOTION_DOT": -0.01997959, "MEAN_MOTION_DDOT": 0}, "tle": {"line1": "1 66570U 25268P   25340.58335648 -.01997959  00000+0 -25235-1 0  9991", "line2": "2 66570  43.0001 157.2727 0001396 260.0515 322.4131 15.62103939  3685"}}, "geometry": {"type": "Point", "coordinates": [86.20322943287145, -40.66375274116754]}}, {"type": "Feature", "properties": {"norad_id": 66571, "name": "STARLINK-35836", "group": "last-30-days", "lat": -40.13230209466416, "lon": 88.61486246974995, "alt_km": 391.6944910837683, "timestamp": "2025-12-07T05:38:08.685101+00:00", "meta": {"OBJECT_NAME": "STARLINK-35836", "OBJECT_ID": "2025-268Q", "EPOCH": "2025-12-06T14:00:01.999872", "MEAN_MOTION": 15.62106091, "ECCENTRICITY": 0.00013852, "INCLINATION": 42.9999, "RA_OF_ASC_NODE": 157.2681, "ARG_OF_PERICENTER": 258.7702, "MEAN_ANOMALY": 325.6098, "EPHEMERIS_TYPE": 0, "CLASSIFICATION_TYPE": "U", "NORAD_CAT_ID": 66571, "ELEMENT_SET_NO": 999, "REV_AT_EPOCH": 368, "BSTAR": -0.02526045, "MEAN_MOTION_DOT": -0.01999888, "MEAN_MOTION_DDOT": 0}, "tle": {"line1": "1 66571U 25268Q   25340.58335648 -.01999888  00000+0 -25260-1 0  9993", "line2": "2 66571  42.9999 157.2681 0001385 258.7702 325.6098 15.62106091  3688"}}, "geometry": {"type": "Point", "coordinates": [88.61486246974995, -40.13230209466416]}}, {"type": "Feature", "properties": {"norad_id": 66572, "name": "STARLINK-35870", "group": "last-30-days", "lat": -39.55065213957282, "lon": 90.99078374840212, "alt_km": 391.7157177862782, "timestamp": "2025-12-07T05:38:08.685111+00:00", "meta": {"OBJECT_NAME": "STARLINK-35870", "OBJECT_ID": "2025-268R", "EPOCH": "2025-12-06T14:00:01.999872", "MEAN_MOTION": 15.6210136, "ECCENTRICITY": 0.00013363, "INCLINATION": 42.9996, "RA_OF_ASC_NODE": 157.2643, "ARG_OF_PERICENTER": 258.3682, "MEAN_ANOMALY": 327.9316, "EPHEMERIS_TYPE": 0, "CLASSIFICATION_TYPE": "U", "NORAD_CAT_ID": 66572, "ELEMENT_SET_NO": 999, "REV_AT_EPOCH": 368, "BSTAR": -0.025177907, "MEAN_MOTION_DOT": -0.01993795, "MEAN_MOTION_DDOT": 0}, "tle": {"line1": "1 66572U 25268R   25340.58335648 -.01993795  00000+0 -25178-1 0  9993", "line2": "2 66572  42.9996 157.2643 0001336 258.3682 327.9316 15.62101360  3685"}}, "geometry": {"type": "Point", "coordinates": [90.99078374840212, -39.55065213957282]}}]}